SAUDISAT 1C (SO-50)     
1 27607U 02058C   26183.73200521  .00001058  00000+0  14185-3 0  9992
2 27607  64.5520  80.8899 0074883 259.5665  99.6996 14.83079392266767
SAUDISAT 2              
1 28371U 04025F   26183.27793993  .00000291  00000+0  76076-4 0  9992
2 28371  98.5511 183.6500 0023503 249.4990 110.3685 14.56692512167947
SAUDISAT 3              
1 31118U 07012B   26183.83115579  .00000328  00000+0  61083-4 0  9997
2 31118  98.1462 134.2426 0014726 172.5255 187.6174 14.71434689 30043
PISAT                   
1 41784U 16059B   26183.46991318  .00001126  00000+0  19878-3 0  9991
2 41784  97.8182 183.2661 0029647 153.9873 206.2831 14.69011061521988
FLYING LAPTOP           
1 42831U 17042G   26183.84956780  .00006406  00000+0  50080-3 0  9990
2 42831  97.4759 338.7866 0019994  71.7378 288.6020 15.01250832488808
SALSAT                  
1 46495U 20068K   26183.25417132  .00008637  00000+0  29987-3 0  9990
2 46495  97.8847 187.2381 0008038 243.7769 116.2645 15.30013367317667
